[ {"name": "STARLINK-30808", "line1": "1 58250U 23171W   26195.31058925  .00029421  00000+0  97349-3 0  9992", "line2": "2 58250  43.0032 289.7686 0004411 322.1466  37.9076 15.30785570149102"}, {"name": "STARLINK-30881", "line1": "1 58251U 23171X   26195.53911213 -.00000082  00000+0  65502-5 0  9996", "line2": "2 58251  43.0020 288.8375 0001560 275.7489  84.3185 15.27575989149132"}, {"name": "STARLINK-30883", "line1": "1 58252U 23171Y   26195.32369427  .00001437  00000+0  61760-4 0  9993", "line2": "2 58252  43.0050 289.8880 0002783 281.0661  78.9877 15.27574865149104"}, {"name": "STARLINK-30907", "line1": "1 58352U 23177B   26195.43089787 -.00000179  00000+0  30279-5 0  9995", "line2": "2 58352  43.0030 354.5917 0001096 240.4605 119.6137 15.27574790147700"}, {"name": "STARLINK-30896", "line1": "1 58353U 23177C   26195.53579656  .00002397  00000+0  96619-4 0  9998", "line2": "2 58353  43.0035 212.4403 0001358 266.5957  93.4739 15.27577765149230"}, {"name": "STARLINK-30832", "line1": "1 58354U 23177D   26195.75026272 -.00005480  00000+0 -18962-3 0  9996", "line2": "2 58354  43.0053 353.5423 0001646 267.1427  92.9236 15.27598946147608"}, {"name": "STARLINK-30903", "line1": "1 58355U 23177E   26195.49885722 -.00000110  00000+0  55225-5 0  9990", "line2": "2 58355  43.0054 354.2547 0001489 265.7996  94.2686 15.27575307147627"}, {"name": "STARLINK-30905", "line1": "1 58356U 23177F   26195.50271312 -.00001367  00000+0 -40144-4 0  9996", "line2": "2 58356  43.0074 354.2501 0002064 282.2768  77.7853 15.27572758147563"}, {"name": "STARLINK-30842", "line1": "1 58357U 23177G   26195.45711263  .00015785  00000+0  55833-3 0  9992", "line2": "2 58357  43.0130 341.0637 0005609 292.8821  67.1439 15.28929667147778"}, {"name": "STARLINK-30858", "line1": "1 58358U 23177H   26195.75397704 -.00000315  00000+0 -19397-5 0  9998", "line2": "2 58358  43.0032 352.7282 0000973 254.9745 105.0999 15.27573423147674"}, {"name": "STARLINK-30878", "line1": "1 58359U 23177J   26195.77147007 -.00000166  00000+0  35122-5 0  9997", "line2": "2 58359  43.0034 356.2544 0001346 256.2472 103.8230 15.27574835147621"}, {"name": "STARLINK-30897", "line1": "1 58360U 23177K   26195.52786830 -.00002919  00000+0 -96574-4 0  9991", "line2": "2 58360  43.0045   8.9274 0002407 169.9071 190.1829 15.27575782147456"}, {"name": "STARLINK-30885", "line1": "1 58361U 23177L   26195.76811089 -.00000010  00000+0  91832-5 0  9995", "line2": "2 58361  43.0062 352.8325 0002188 262.9603  97.0999 15.27576871147672"}, {"name": "STARLINK-30890", "line1": "1 58362U 23177M   26195.51041825 -.00000051  00000+0  76947-5 0  9997", "line2": "2 58362  43.0047 354.3380 0002198 275.6484  84.4117 15.27576795147579"}, {"name": "STARLINK-30909", "line1": "1 58363U 23177N   26195.77581483  .00000531  00000+0  28851-4 0  9997", "line2": "2 58363  43.0080 352.8857 0003211 249.2845 110.7663 15.27575121147665"}, {"name": "STARLINK-30904", "line1": "1 58364U 23177P   26195.53059982  .00011107  00000+0  68168-3 0  9991", "line2": "2 58364  42.9992  14.9199 0010632 260.7150  99.2493 15.10090447147389"}, {"name": "STARLINK-30918", "line1": "1 58365U 23177Q   26195.45917344 -.00000884  00000+0 -22609-4 0  9991", "line2": "2 58365  43.0029 354.8121 0002057 287.5857  72.4770 15.27569300147600"}, {"name": "STARLINK-30892", "line1": "1 58366U 23177R   26195.77967882 -.00000022  00000+0  87126-5 0  9998", "line2": "2 58366  43.0013 352.9131 0001013 280.4410  79.6327 15.27575228147672"}, {"name": "STARLINK-30891", "line1": "1 58367U 23177S   26195.46689259 -.00001994  00000+0 -62910-4 0  9997", "line2": "2 58367  43.0112 354.8725 0005323 289.1976  70.8299 15.27558980147558"}, {"name": "STARLINK-30889", "line1": "1 58368U 23177T   26195.52840794 -.00000240  00000+0  78389-6 0  9999", "line2": "2 58368  43.0005 354.4641 0001278 253.5635 106.5076 15.27575387147623"}, {"name": "STARLINK-30870", "line1": "1 58369U 23177U   26195.47073854  .00015727  00000+0  58144-3 0  9998", "line2": "2 58369  43.0012 354.8881 0001667 151.6746 208.4197 15.27487864147612"}, {"name": "STARLINK-30888", "line1": "1 58370U 23177V   26195.75525735  .00000362  00000+0  22679-4 0  9995", "line2": "2 58370  43.0043 352.7284 0001741 293.4456  66.6213 15.27581434147675"}, {"name": "STARLINK-30859", "line1": "1 58371U 23177W   26195.47715321  .00000015  00000+0  10061-4 0  9994", "line2": "2 58371  43.0034 354.9069 0001317 267.4927  92.5774 15.27574800147628"}, {"name": "STARLINK-30884", "line1": "1 58372U 23177X   26194.75918606  .00000317  00000+0  21053-4 0  9994", "line2": "2 58372  43.0035 359.0065 0001195 275.1141  84.9574 15.27581007147507"}, {"name": "STARLINK-30852", "line1": "1 58373U 23177Y   26195.58335648 -.00019739  00000+0 -70952-3 0  9997", "line2": "2 58373  43.0037 353.7583 0001686 273.0716 185.1755 15.27586177  5912"}, {"name": "STARLINK-30911", "line1": "1 58374U 23178A   26195.24695141 -.00004144  00000+0 -11156-3 0  9994", "line2": "2 58374  53.1593 130.6886 0001532  96.4372 263.6805 15.34406044149295"}, {"name": "STARLINK-30894", "line1": "1 58375U 23178B   26195.54536963 -.00000883  00000+0 -14990-4 0  9990", "line2": "2 58375  53.1618 129.7129 0001707 108.0850 252.0339 15.34386920149270"}, {"name": "STARLINK-30910", "line1": "1 58376U 23178C   26195.52012190 -.00000083  00000+0  86811-5 0  9993", "line2": "2 58376  53.1583 129.5607 0001499  90.1867 269.9308 15.34400622149345"}, {"name": "STARLINK-30914", "line1": "1 58377U 23178D   26195.51170794  .00005683  00000+0  17939-3 0  9991", "line2": "2 58377  53.1587 129.4929 0001083  73.3269 286.7853 15.34366522149346"}, {"name": "STARLINK-30920", "line1": "1 58378U 23178E   26195.58335648  .00061550  00000+0  18241-2 0  9991", "line2": "2 58378  53.1587 118.9783 0000760 111.1289  65.0338 15.34292911  5765"}]