OBJECT_NAME,OBJECT_ID,EPOCH,MEAN_MOTION,ECCENTRICITY,INCLINATION,RA_OF_ASC_NODE,ARG_OF_PERICENTER,MEAN_ANOMALY,EPHEMERIS_TYPE,CLASSIFICATION_TYPE,NORAD_CAT_ID,ELEMENT_SET_NO,REV_AT_EPOCH,BSTAR,MEAN_MOTION_DOT,MEAN_MOTION_DDOT
STARLINK-30808,2023-171W,2026-07-14T07:27:14.911200,15.30785570,.00044114,43.0032,289.7686,322.1466,37.9076,0,U,58250,999,14910,.97348907E-3,.29421E-3,0
STARLINK-30881,2023-171X,2026-07-14T12:56:19.288032,15.27575989,.00015606,43.0020,288.8375,275.7489,84.3185,0,U,58251,999,14913,.6550175E-5,-.82E-6,0
STARLINK-30883,2023-171Y,2026-07-14T07:46:07.184928,15.27574865,.00027833,43.0050,289.8880,281.0661,78.9877,0,U,58252,999,14910,.61759892E-4,.1437E-4,0
STARLINK-30907,2023-177B,2026-07-14T10:20:29.575968,15.27574790,.00010968,43.0030,354.5917,240.4605,119.6137,0,U,58352,999,14770,.3027882E-5,-.179E-5,0
STARLINK-30896,2023-177C,2026-07-14T12:51:32.822784,15.27577765,.0001358,43.0035,212.4403,266.5957,93.4739,0,U,58353,999,14923,.96619E-4,.2397E-4,0
STARLINK-30832,2023-177D,2026-07-14T18:00:22.699008,15.27598946,.0001646,43.0053,353.5423,267.1427,92.9236,0,U,58354,999,14760,-.18962E-3,-.548E-4,0
STARLINK-30903,2023-177E,2026-07-14T11:58:21.263808,15.27575307,.0001489,43.0054,354.2547,265.7996,94.2686,0,U,58355,999,14762,.55225E-5,-.11E-5,0
STARLINK-30905,2023-177F,2026-07-14T12:03:54.413568,15.27572758,.00020642,43.0074,354.2501,282.2768,77.7853,0,U,58356,999,14756,-.40143993E-4,-.1367E-4,0
STARLINK-30842,2023-177G,2026-07-14T10:58:14.531232,15.28929667,.00056098,43.0130,341.0637,292.8821,67.1439,0,U,58357,999,14777,.55832876E-3,.15785E-3,0
STARLINK-30858,2023-177H,2026-07-14T18:05:43.616256,15.27573423,.0000973,43.0032,352.7282,254.9745,105.0999,0,U,58358,999,14767,-.19397E-5,-.315E-5,0
STARLINK-30878,2023-177J,2026-07-14T18:30:55.014048,15.27574835,.0001346,43.0034,356.2544,256.2472,103.8230,0,U,58359,999,14762,.35122E-5,-.166E-5,0
STARLINK-30897,2023-177K,2026-07-14T12:40:07.821120,15.27575782,.00024076,43.0045,8.9274,169.9071,190.1829,0,U,58360,999,14745,-.9657377E-4,-.2919E-4,0
STARLINK-30885,2023-177L,2026-07-14T18:26:04.780896,15.27576871,.0002188,43.0062,352.8325,262.9603,97.0999,0,U,58361,999,14767,.91832E-5,-.1E-6,0
STARLINK-30890,2023-177M,2026-07-14T12:15:00.136800,15.27576795,.00021985,43.0047,354.3380,275.6484,84.4117,0,U,58362,999,14757,.7694745E-5,-.51E-6,0
STARLINK-30909,2023-177N,2026-07-14T18:37:10.401312,15.27575121,.0003211,43.0080,352.8857,249.2845,110.7663,0,U,58363,999,14766,.28851E-4,.531E-5,0
STARLINK-30904,2023-177P,2026-07-14T12:44:03.824448,15.10090447,.00106321,42.9992,14.9199,260.7150,99.2493,0,U,58364,999,14738,.68168457E-3,.11107E-3,0
STARLINK-30918,2023-177Q,2026-07-14T11:01:12.585216,15.27569300,.00020577,43.0029,354.8121,287.5857,72.4770,0,U,58365,999,14760,-.22608929E-4,-.884E-5,0
STARLINK-30892,2023-177R,2026-07-14T18:42:44.250048,15.27575228,.0001013,43.0013,352.9131,280.4410,79.6327,0,U,58366,999,14767,.87126E-5,-.22E-6,0
STARLINK-30891,2023-177S,2026-07-14T11:12:19.519776,15.27558980,.00053237,43.0112,354.8725,289.1976,70.8299,0,U,58367,999,14755,-.62909584E-4,-.1994E-4,0
STARLINK-30889,2023-177T,2026-07-14T12:40:54.446016,15.27575387,.00012785,43.0005,354.4641,253.5635,106.5076,0,U,58368,999,14762,.783891E-6,-.24E-5,0
STARLINK-30870,2023-177U,2026-07-14T11:17:51.809856,15.27487864,.00016671,43.0012,354.8881,151.6746,208.4197,0,U,58369,999,14761,.58143809E-3,.15727E-3,0
STARLINK-30888,2023-177V,2026-07-14T18:07:34.235040,15.27581434,.0001741,43.0043,352.7284,293.4456,66.6213,0,U,58370,999,14767,.22679E-4,.362E-5,0
STARLINK-30859,2023-177W,2026-07-14T11:27:06.037344,15.27574800,.0001317,43.0034,354.9069,267.4927,92.5774,0,U,58371,999,14762,.10061437E-4,.15E-6,0
STARLINK-30884,2023-177X,2026-07-13T18:13:13.675584,15.27581007,.00011959,43.0035,359.0065,275.1141,84.9574,0,U,58372,999,14750,.21053471E-4,.317E-5,0
STARLINK-30852,2023-177Y,2026-07-14T14:00:01.999872,15.27586177,.0001686,43.0037,353.7583,273.0716,185.1755,0,U,58373,999,591,-.70951667E-3,-.19739E-3,0
STARLINK-30911,2023-178A,2026-07-14T05:55:36.601824,15.34406044,.00015321,53.1593,130.6886,96.4372,263.6805,0,U,58374,999,14929,-.11155723E-3,-.4144E-4,0
STARLINK-30894,2023-178B,2026-07-14T13:05:19.936032,15.34386920,.00017073,53.1618,129.7129,108.0850,252.0339,0,U,58375,999,14927,-.149897E-4,-.883E-5,0
STARLINK-30910,2023-178C,2026-07-14T12:28:58.532160,15.34400622,.00014994,53.1583,129.5607,90.1867,269.9308,0,U,58376,999,14934,.8681063E-5,-.83E-6,0
STARLINK-30914,2023-178D,2026-07-14T12:16:51.566016,15.34366522,.0001083,53.1587,129.4929,73.3269,286.7853,0,U,58377,999,14934,.17938718E-3,.5683E-4,0
STARLINK-30920,2023-178E,2026-07-14T14:00:01.999872,15.34292911,.00007605,53.1587,118.9783,111.1289,65.0338,0,U,58378,999,576,.18241044E-2,.6155E-3,0
